{
  "type": "FeatureCollection",
  "features": [
    {
      "type": "Feature",
      "properties": {
        "norad_id": 41556,
        "name": "ZIYUAN 3-2 (ZY 3-2)",
        "group": "resource",
        "lat": -82.58185802076068,
        "lon": 147.66316038395865,
        "alt_km": 500.55982581177796,
        "timestamp": "2025-12-06T18:50:09.828160+00:00",
        "meta_object_name": "ZIYUAN 3-2 (ZY 3-2)",
        "meta_object_id": "2016-033A",
        "meta_epoch": "2025-12-06T06:36:13.656384",
        "meta_mean_motion": 15.21364342,
        "meta_eccentricity": 0.00123655,
        "meta_inclination": 97.4054,
        "meta_ra_of_asc_node": 54.5489,
        "meta_arg_of_pericenter": 274.3933,
        "meta_mean_anomaly": 85.589,
        "meta_ephemeris_type": 0,
        "meta_classification_type": "U",
        "meta_norad_cat_id": 41556,
        "meta_element_set_no": 999,
        "meta_rev_at_epoch": 52865,
        "meta_bstar": 0.00055732915,
        "meta_mean_motion_dot": 0.00012457,
        "meta_mean_motion_ddot": 0,
        "tle_line1": "1 41556U 16033A   25340.27515806  .00012457  00000+0  55733-3 0  9996",
        "tle_line2": "2 41556  97.4054  54.5489 0012365 274.3933  85.5890 15.21364342528657"
      },
      "geometry": {
        "type": "Point",
        "coordinates": [
          147.66316038395865,
          -82.58185802076068
        ]
      }
    },
    {
      "type": "Feature",
      "properties": {
        "norad_id": 41599,
        "name": "CARTOSAT-2C",
        "group": "resource",
        "lat": -77.83136428781765,
        "lon": -179.42707448870846,
        "alt_km": 523.1617053774071,
        "timestamp": "2025-12-06T18:50:09.828170+00:00",
        "meta_object_name": "CARTOSAT-2C",
        "meta_object_id": "2016-040A",
        "meta_epoch": "2025-12-06T06:37:42.530880",
        "meta_mean_motion": 15.1919995,
        "meta_eccentricity": 0.00110126,
        "meta_inclination": 97.4773,
        "meta_ra_of_asc_node": 37.5932,
        "meta_arg_of_pericenter": 84.771,
        "meta_mean_anomaly": 275.4781,
        "meta_ephemeris_type": 0,
        "meta_classification_type": "U",
        "meta_norad_cat_id": 41599,
        "meta_element_set_no": 999,
        "meta_rev_at_epoch": 52442,
        "meta_bstar": 0.00039337914,
        "meta_mean_motion_dot": 8.226e-05,
        "meta_mean_motion_ddot": 0,
        "tle_line1": "1 41599U 16040A   25340.27618670  .00008226  00000+0  39338-3 0  9996",
        "tle_line2": "2 41599  97.4773  37.5932 0011012  84.7710 275.4781 15.19199950524428"
      },
      "geometry": {
        "type": "Point",
        "coordinates": [
          -179.42707448870846,
          -77.83136428781765
        ]
      }
    },
    {
      "type": "Feature",
      "properties": {
        "norad_id": 41601,
        "name": "SKYSAT-C1",
        "group": "resource",
        "lat": 31.640067187511683,
        "lon": 13.804235031809762,
        "alt_km": 464.79966992530444,
        "timestamp": "2025-12-06T18:50:09.828181+00:00",
        "meta_object_name": "SKYSAT-C1",
        "meta_object_id": "2016-040C",
        "meta_epoch": "2025-12-06T03:01:32.332224",
        "meta_mean_motion": 15.32410968,
        "meta_eccentricity": 0.00030314,
        "meta_inclination": 96.9827,
        "meta_ra_of_asc_node": 17.5138,
        "meta_arg_of_pericenter": 32.3321,
        "meta_mean_anomaly": 327.8107,
        "meta_ephemeris_type": 0,
        "meta_classification_type": "U",
        "meta_norad_cat_id": 41601,
        "meta_element_set_no": 999,
        "meta_rev_at_epoch": 52826,
        "meta_bstar": 0.00046316427,
        "meta_mean_motion_dot": 0.00014435,
        "meta_mean_motion_ddot": 0,
        "tle_line1": "1 41601U 16040C   25340.12606866  .00014435  00000+0  46316-3 0  9991",
        "tle_line2": "2 41601  96.9827  17.5138 0003031  32.3321 327.8107 15.32410968528261"
      },
      "geometry": {
        "type": "Point",
        "coordinates": [
          13.804235031809762,
          31.640067187511683
        ]
      }
    },
    {
      "type": "Feature",
      "properties": {
        "norad_id": 41603,
        "name": "LAPAN-A3",
        "group": "resource",
        "lat": -16.85570902208304,
        "lon": 156.3807571361068,
        "alt_km": 483.112939369521,
        "timestamp": "2025-12-06T18:50:09.828191+00:00",
        "meta_object_name": "LAPAN-A3",
        "meta_object_id": "2016-040E",
        "meta_epoch": "2025-12-06T07:00:06.939936",
        "meta_mean_motion": 15.31474269,
        "meta_eccentricity": 0.00104581,
        "meta_inclination": 97.1422,
        "meta_ra_of_asc_node": 338.0829,
        "meta_arg_of_pericenter": 358.0428,
        "meta_mean_anomaly": 2.0772,
        "meta_ephemeris_type": 0,
        "meta_classification_type": "U",
        "meta_norad_cat_id": 41603,
        "meta_element_set_no": 999,
        "meta_rev_at_epoch": 52527,
        "meta_bstar": 0.00021624739,
        "meta_mean_motion_dot": 6.509e-05,
        "meta_mean_motion_ddot": 0,
        "tle_line1": "1 41603U 16040E   25340.29174699  .00006509  00000+0  21625-3 0  9994",
        "tle_line2": "2 41603  97.1422 338.0829 0010458 358.0428   2.0772 15.31474269525273"
      },
      "geometry": {
        "type": "Point",
        "coordinates": [
          156.3807571361068,
          -16.85570902208304
        ]
      }
    },
    {
      "type": "Feature",
      "properties": {
        "norad_id": 41604,
        "name": "BIROS",
        "group": "resource",
        "lat": -60.801431644018194,
        "lon": 179.1616785827303,
        "alt_km": 316.84060384613895,
        "timestamp": "2025-12-06T18:50:09.828201+00:00",
        "meta_object_name": "BIROS",
        "meta_object_id": "2016-040F",
        "meta_epoch": "2025-12-06T01:10:33.712320",
        "meta_mean_motion": 15.86962329,
        "meta_eccentricity": 0.00029305,
        "meta_inclination": 97.0681,
        "meta_ra_of_asc_node": 11.2276,
        "meta_arg_of_pericenter": 164.8152,
        "meta_mean_anomaly": 195.3208,
        "meta_ephemeris_type": 0,
        "meta_classification_type": "U",
        "meta_norad_cat_id": 41604,
        "meta_element_set_no": 999,
        "meta_rev_at_epoch": 52766,
        "meta_bstar": 0.00071536052,
        "meta_mean_motion_dot": 0.00186815,
        "meta_mean_motion_ddot": 0,
        "tle_line1": "1 41604U 16040F   25340.04900130  .00186815  00000+0  71536-3 0  9990",
        "tle_line2": "2 41604  97.0681  11.2276 0002930 164.8152 195.3208 15.86962329527663"
      },
      "geometry": {
        "type": "Point",
        "coordinates": [
          179.1616785827303,
          -60.801431644018194
        ]
      }
    },
    {
      "type": "Feature",
      "properties": {
        "norad_id": 41727,
        "name": "GAOFEN-3",
        "group": "resource",
        "lat": 80.34478403801573,
        "lon": -73.87567104600058,
        "alt_km": 742.7311871073753,
        "timestamp": "2025-12-06T18:50:09.828211+00:00",
        "meta_object_name": "GAOFEN-3",
        "meta_object_id": "2016-049A",
        "meta_epoch": "2025-12-06T06:47:12.777792",
        "meta_mean_motion": 14.42211416,
        "meta_eccentricity": 0.00015332,
        "meta_inclination": 98.404,
        "meta_ra_of_asc_node": 345.9676,
        "meta_arg_of_pericenter": 70.8085,
        "meta_mean_anomaly": 289.327,
        "meta_ephemeris_type": 0,
        "meta_classification_type": "U",
        "meta_norad_cat_id": 41727,
        "meta_element_set_no": 999,
        "meta_rev_at_epoch": 49084,
        "meta_bstar": 7.0642323e-05,
        "meta_mean_motion_dot": 1.89e-06,
        "meta_mean_motion_ddot": 0,
        "tle_line1": "1 41727U 16049A   25340.28278678  .00000189  00000+0  70642-4 0  9993",
        "tle_line2": "2 41727  98.4040 345.9676 0001533  70.8085 289.3270 14.42211416490840"
      },
      "geometry": {
        "type": "Point",
        "coordinates": [
          -73.87567104600058,
          80.34478403801573
        ]
      }
    },
    {
      "type": "Feature",
      "properties": {
        "norad_id": 41771,
        "name": "SKYSAT-C4",
        "group": "resource",
        "lat": 57.785888044676376,
        "lon": -162.59407436719925,
        "alt_km": 434.0948340244313,
        "timestamp": "2025-12-06T18:50:09.828222+00:00",
        "meta_object_name": "SKYSAT-C4",
        "meta_object_id": "2016-058B",
        "meta_epoch": "2025-12-06T01:10:44.376672",
        "meta_mean_motion": 15.41966425,
        "meta_eccentricity": 8.956e-05,
        "meta_inclination": 96.9374,
        "meta_ra_of_asc_node": 5.5637,
        "meta_arg_of_pericenter": 128.2614,
        "meta_mean_anomaly": 231.8715,
        "meta_ephemeris_type": 0,
        "meta_classification_type": "U",
        "meta_norad_cat_id": 41771,
        "meta_element_set_no": 999,
        "meta_rev_at_epoch": 51564,
        "meta_bstar": 0.00051031777,
        "meta_mean_motion_dot": 0.0002168,
        "meta_mean_motion_ddot": 0,
        "tle_line1": "1 41771U 16058B   25340.04912473  .00021680  00000+0  51032-3 0  9994",
        "tle_line2": "2 41771  96.9374   5.5637 0000895 128.2614 231.8715 15.41966425515643"
      },
      "geometry": {
        "type": "Point",
        "coordinates": [
          -162.59407436719925,
          57.785888044676376
        ]
      }
    }
  ]
}